NORAD_CAT_ID,OBJECT_NAME,OBJECT_TYPE,EPOCH,MEAN_MOTION,ECCENTRICITY,INCLINATION,RA_OF_ASC_NODE,ARG_OF_PERICENTER,MEAN_ANOMALY,BSTAR,MEAN_MOTION_DOT,MEAN_MOTION_DDOT,TLE_LINE0,TLE_LINE1,TLE_LINE2,SEMIMAJOR_AXIS,PERIOD,APOGEE,PERIGEE,DECAYED
53038.0,STARLINK-4156,PAYLOAD,2023-03-09 00:03:10,15.08844058,5.78e-05,53.2151,317.3456,36.9861,323.1171,0.00073965,0.00011505,0.0,0 STARLINK-4156,1 53038U 22076BE  23068.00220195  .00011505  00000-0  73965-3 0  9999,2 53038  53.2151 317.3456 0000578  36.9861 323.1171 15.08844058 38024,6917.868,95.437,540.133,539.333,0.0
53038.0,STARLINK-4156,PAYLOAD,2023-03-09 22:18:34,15.08859313,5.12e-05,53.2145,313.185,112.2103,247.8944,0.0011486,0.00018049,0.0,0 STARLINK-4156,1 53038U 22076BE  23068.92956219  .00018049  00000-0  11486-2 0  9992,2 53038  53.2145 313.1850 0000512 112.2103 247.8944 15.08859313 37708,6917.821,95.436,540.041,539.332,0.0
53038.0,STARLINK-4156,PAYLOAD,2023-03-10 09:26:16,15.08844722,8.64e-05,53.2149,311.1034,64.5319,295.5762,0.00045505,6.963e-05,0.0,0 STARLINK-4156,1 53038U 22076BE  23069.39324442  .00006963  00000-0  45505-3 0  9993,2 53038  53.2149 311.1034 0000864  64.5319 295.5762 15.08844722 38237,6917.866,95.437,540.329,539.133,0.0
53038.0,STARLINK-4156,PAYLOAD,2023-03-10 22:09:21,15.08826639,3.43e-05,53.2154,308.7228,89.7945,270.3087,-0.00015892,-2.815e-05,0.0,0 STARLINK-4156,1 53038U 22076BE  23069.92316919 -.00002815  00000-0 -15892-3 0  9992,2 53038  53.2154 308.7228 0000343  89.7945 270.3087 15.08826639 37851,6917.921,95.438,540.024,539.549,0.0
53038.0,STARLINK-4156,PAYLOAD,2023-03-11 01:20:07,15.08844101,6.92e-05,53.2155,308.1278,81.7932,278.3138,0.00039394,5.988e-05,0.0,0 STARLINK-4156,1 53038U 22076BE  23070.05564679  .00005988  00000-0  39394-3 0  9991,2 53038  53.2155 308.1278 0000692  81.7932 278.3138 15.08844101 38339,6917.868,95.437,540.212,539.254,0.0
53038.0,STARLINK-4156,PAYLOAD,2023-03-12 01:10:55,15.08841166,8.08e-05,53.2152,303.6655,103.6361,256.4721,0.00045126,6.902e-05,0.0,0 STARLINK-4156,1 53038U 22076BE  23071.04925058  .00006902  00000-0  45126-3 0  9990,2 53038  53.2152 303.6655 0000808 103.6361 256.4721 15.08841166 38483,6917.877,95.437,540.301,539.183,0.0
53038.0,STARLINK-4156,PAYLOAD,2023-03-13 01:01:41,15.08855227,0.0001034,53.2158,299.2044,79.8885,280.2224,0.00032389,4.873e-05,0.0,0 STARLINK-4156,1 53038U 22076BE  23072.04284359  .00004873  00000-0  32389-3 0  9995,2 53038  53.2158 299.2044 0001034  79.8885 280.2224 15.08855227 38170,6917.834,95.437,540.414,538.984,0.0
53038.0,STARLINK-4156,PAYLOAD,2023-03-13 21:41:43,15.08831542,9.65e-05,53.2156,295.3367,112.5699,247.5395,-0.00013213,-2.389e-05,0.0,0 STARLINK-4156,1 53038U 22076BE  23072.90397343 -.00002389  00000-0 -13213-3 0  9995,2 53038  53.2156 295.3367 0000965 112.5699 247.5395 15.08831542 38307,6917.906,95.438,540.439,539.104,0.0
53038.0,STARLINK-4156,PAYLOAD,2023-03-14 00:52:29,15.08831271,0.000102,53.2156,294.7418,124.5793,235.5295,-0.00012271,-2.24e-05,0.0,0 STARLINK-4156,1 53038U 22076BE  23073.03645362 -.00002240  00000-0 -12271-3 0  9996,2 53038  53.2156 294.7418 0001020 124.5793 235.5295 15.08831271 38785,6917.907,95.438,540.478,539.066,0.0
53038.0,STARLINK-4156,PAYLOAD,2023-03-14 21:32:29,15.08854739,5.09e-05,53.2146,290.8782,46.7756,313.3279,0.00036697,5.56e-05,0.0,0 STARLINK-4156,1 53038U 22076BE  23073.89756402  .00005560  00000-0  36697-3 0  9992,2 53038  53.2146 290.8782 0000509  46.7756 313.3279 15.08854739 38916,6917.835,95.437,540.052,539.348,0.0
53038.0,STARLINK-4156,PAYLOAD,2023-03-15 00:43:16,15.08862441,9.71e-05,53.2139,290.2848,91.312,268.7984,0.0007246,0.0001127,0.0,0 STARLINK-4156,1 53038U 22076BE  23074.03004698  .00011270  00000-0  72460-3 0  9995,2 53038  53.2139 290.2848 0000971  91.3120 268.7984 15.08862441 38475,6917.812,95.436,540.349,539.005,0.0
53038.0,STARLINK-4156,PAYLOAD,2023-03-15 16:37:07,15.08849254,0.0001356,53.2139,287.3096,82.8059,277.3088,0.00026868,3.992e-05,0.0,0 STARLINK-4156,1 53038U 22076BE  23074.69245040  .00003992  00000-0  26868-3 0  9998,2 53038  53.2139 287.3096 0001356  82.8059 277.3088 15.08849254 39032,6917.852,95.437,540.655,538.779,0.0
53038.0,STARLINK-4156,PAYLOAD,2023-03-15 21:23:16,15.08854375,0.0001245,53.2149,286.4164,78.6988,281.4144,0.00042792,6.532e-05,0.0,0 STARLINK-4156,1 53038U 22076BE  23074.89116830  .00006532  00000-0  42792-3 0  9991,2 53038  53.2149 286.4164 0001245  78.6988 281.4144 15.08854375 38601,6917.836,95.437,540.563,538.84,0.0
53038.0,STARLINK-4156,PAYLOAD,2023-03-16 13:17:08,15.08836057,0.0001329,53.2133,283.4439,98.0489,262.0654,0.00040669,6.19e-05,0.0,0 STARLINK-4156,1 53038U 22076BE  23075.55357272  .00006190  00000-0  40669-3 0  9993,2 53038  53.2133 283.4439 0001329  98.0489 262.0654 15.08836057 39161,6917.892,95.438,540.677,538.838,0.0
53038.0,STARLINK-4156,PAYLOAD,2023-03-16 21:14:04,15.08824209,9.9e-05,53.2136,281.9587,86.1413,273.9692,0.00043133,6.581e-05,0.0,0 STARLINK-4156,1 53038U 22076BE  23075.88477789  .00006581  00000-0  43133-3 0  9998,2 53038  53.2136 281.9587 0000990  86.1413 273.9692 15.08824209 38752,6917.929,95.439,540.479,539.109,0.0
53038.0,STARLINK-4156,PAYLOAD,2023-03-16 22:49:28,15.08824629,0.0001064,53.2131,281.661,83.7951,276.3162,0.0004353,6.644e-05,0.0,0 STARLINK-4156,1 53038U 22076BE  23075.95101877  .00006644  00000-0  43530-3 0  9999,2 53038  53.2131 281.6610 0001064  83.7951 276.3162 15.08824629 39222,6917.927,95.439,540.528,539.056,0.0
53038.0,STARLINK-4156,PAYLOAD,2023-03-17 13:07:56,15.08841374,0.0001187,53.2139,278.9848,71.734,288.3781,0.00074508,0.0001159,0.0,0 STARLINK-4156,1 53038U 22076BE  23076.54718025  .00011590  00000-0  74508-3 0  9999,2 53038  53.2139 278.9848 0001187  71.7340 288.3781 15.08841374 38851,6917.876,95.437,540.562,538.92,0.0
53038.0,STARLINK-4156,PAYLOAD,2023-03-17 19:29:28,15.08853169,0.0001056,53.2133,277.7956,68.4561,291.6543,0.00091584,0.00014323,0.0,0 STARLINK-4156,1 53038U 22076BE  23076.81213703  .00014323  00000-0  91584-3 0  9992,2 53038  53.2133 277.7956 0001056  68.4561 291.6543 15.08853169 39359,6917.84,95.437,540.436,538.975,0.0
53038.0,STARLINK-4156,PAYLOAD,2023-03-17 21:04:51,15.08857828,0.0001174,53.2135,277.4984,68.3754,291.7363,0.0010177,0.00015954,0.0,0 STARLINK-4156,1 53038U 22076BE  23076.87837607  .00015954  00000-0  10177-2 0  9992,2 53038  53.2135 277.4984 0001174  68.3754 291.7363 15.08857828 38900,6917.826,95.436,540.503,538.879,0.0
53038.0,STARLINK-4156,PAYLOAD,2023-03-18 12:58:43,15.08827549,0.000105,53.2136,274.5249,77.2948,282.8162,-0.00026798,-4.549e-05,0.0,0 STARLINK-4156,1 53038U 22076BE  23077.54078061 -.00004549  00000-0 -26798-3 0  9995,2 53038  53.2136 274.5249 0001050  77.2948 282.8162 15.08827549 39467,6917.918,95.438,540.51,539.057,0.0
53038.0,STARLINK-4156,PAYLOAD,2023-03-18 19:20:16,15.08816499,0.0001008,53.2145,273.3354,73.8866,286.2237,-0.00046861,-7.733e-05,0.0,0 STARLINK-4156,1 53038U 22076BE  23077.80574502 -.00007733  00000-0 -46861-3 0  9996,2 53038  53.2145 273.3354 0001008  73.8866 286.2237 15.08816499 39042,6917.952,95.439,540.515,539.12,0.0
53038.0,STARLINK-4156,PAYLOAD,2023-03-19 12:49:31,15.088424,0.0001238,53.2146,270.0645,78.5086,281.6045,0.0014946,0.0002358,0.0,0 STARLINK-4156,1 53038U 22076BE  23078.53439466  .00023580  00000-0  14946-2 0  9990,2 53038  53.2146 270.0645 0001238  78.5086 281.6045 15.08842400 39611,6917.873,95.437,540.594,538.882,0.0
53038.0,STARLINK-4156,PAYLOAD,2023-03-19 19:11:03,15.08865553,0.0001235,53.2144,268.8751,82.2392,277.874,0.0021137,0.00033535,0.0,0 STARLINK-4156,1 53038U 22076BE  23078.79935151  .00033535  00000-0  21137-2 0  9991,2 53038  53.2144 268.8751 0001235  82.2392 277.8740 15.08865553 39197,6917.802,95.436,540.522,538.813,0.0
53038.0,STARLINK-4156,PAYLOAD,2023-03-20 19:01:49,15.08878726,0.0001348,53.2149,264.4134,80.8087,279.3058,0.0013628,0.00021491,0.0,0 STARLINK-4156,1 53038U 22076BE  23079.79293883  .00021491  00000-0  13628-2 0  9995,2 53038  53.2149 264.4134 0001348  80.8087 279.3058 15.08878726 39802,6917.762,95.435,540.56,538.695,0.0
53038.0,STARLINK-4156,PAYLOAD,2023-03-21 10:55:39,15.08894197,0.0001169,53.2139,261.4394,75.7398,284.3724,0.00097164,0.00015232,0.0,0 STARLINK-4156,1 53038U 22076BE  23080.45531854  .00015232  00000-0  97164-3 0  9997,2 53038  53.2139 261.4394 0001169  75.7398 284.3724 15.08894197 39441,6917.715,95.434,540.388,538.771,0.0
53038.0,STARLINK-4156,PAYLOAD,2023-03-21 18:52:36,15.08859942,0.0001299,53.2134,259.9498,72.766,287.3474,0.00033734,5.088e-05,0.0,0 STARLINK-4156,1 53038U 22076BE  23080.78653113  .00005088  00000-0  33734-3 0  9997,2 53038  53.2134 259.9498 0001299  72.7660 287.3474 15.08859942 39956,6917.819,95.436,540.583,538.786,0.0
53038.0,STARLINK-4156,PAYLOAD,2023-03-22 04:24:54,15.08851122,6.71e-05,53.2135,258.1681,79.0223,281.0845,0.00047022,7.206e-05,0.0,0 STARLINK-4156,1 53038U 22076BE  23081.18396896  .00007206  00000-0  47022-3 0  9993,2 53038  53.2135 258.1681 0000671  79.0223 281.0845 15.08851122 40014,6917.846,95.437,540.176,539.247,0.0
53038.0,STARLINK-4156,PAYLOAD,2023-03-22 12:21:50,15.0884061,0.0001366,53.2146,256.6812,87.4503,272.6646,-0.00017491,-3.071e-05,0.0,0 STARLINK-4156,1 53038U 22076BE  23081.51517243 -.00003071  00000-0 -17491-3 0  9996,2 53038  53.2146 256.6812 0001366  87.4503 272.6646 15.08840610 40061,6917.879,95.438,540.689,538.799,0.0
53038.0,STARLINK-4156,PAYLOAD,2023-03-22 17:08:00,15.08844095,0.0001317,53.2151,255.7896,87.9988,272.1155,-0.00013057,-2.366e-05,0.0,0 STARLINK-4156,1 53038U 22076BE  23081.71389271 -.00002366  00000-0 -13057-3 0  9996,2 53038  53.2151 255.7896 0001317  87.9988 272.1155 15.08844095 39639,6917.868,95.437,540.644,538.822,0.0
53038.0,STARLINK-4156,PAYLOAD,2023-03-23 10:37:15,15.0883598,0.0001325,53.2152,252.5204,106.2137,253.9001,5.3563e-05,5.65e-06,0.0,0 STARLINK-4156,1 53038U 22076BE  23082.44253523  .00000565  00000-0  53563-4 0  9991,2 53038  53.2152 252.5204 0001325 106.2137 253.9001 15.08835980 39740,6917.893,95.438,540.674,538.841,0.0
